COSMOS 2058,1 20465U 90010A   26086.25886123  .00004714  00000+0  27685-3 0  9990,2 20465  82.4684  30.1149 0007426 274.9238  85.1144 15.11475253944894,17.50126785827034,17.583482683291518,535375.813257823
SL-14 R/B,1 20466U 90010B   26086.15548851  .00000499  00000+0  57602-4 0  9992,2 20466  82.4994 250.9775 0018507 240.2295 119.7080 14.83584383931079,-2.3130200704403556,56.28803882089275,614293.4364277829
SL-14 R/B,1 20511U 90018B   26085.71750333  .00000440  00000+0  52147-4 0  9997,2 20511  82.5234 207.1767 0017088  40.1511 320.0962 14.82161327925105,-3.9059282403051117,-168.73377934752972,617135.5070657189
HST,1 20580U 90037B   26086.23243692  .00007403  00000+0  24183-3 0  9991,2 20580  28.4721 280.3064 0001625 332.1046  27.9462 15.29746183776003,-2.392870551378213,88.04866498259372,476121.13813303545
SL-16 R/B,1 20625U 90046B   26086.22877058  .00000274  00000+0  16604-3 0  9997,2 20625  70.9972 261.0750 0016288 276.5697  83.3571 14.15015194850875,67.84937027072455,-56.894573716946496,864645.1413174489
COSMOS 2084,1 20663U 90055A   26086.25482149  .00002479  00000+0  18400-3 0  9990,2 20663  62.7892 275.6640 0014301 195.3758 164.6910 15.05743328938960,30.658246461864643,-82.26243651887017,561319.8802851811
SL-6 R/B(2),1 20666U 90055D   26086.26154310  .00001804  00000+0  14466-3 0  9999,2 20666  62.7830 194.0903 0027670 351.0864   8.9740 15.03677154940834,-3.174466652848154,176.91897084524123,538775.8585851298
SL-8 R/B,1 20775U 90078B   26085.90898722  .00013317  00000+0  39440-3 0  9998,2 20775  82.9018 235.8155 0358755 315.9447  41.3686 14.89584455811861,71.18771157348871,-118.06395066626014,724230.3221908939
SL-8 R/B,1 21088U 91006B   26086.27548412  .00000076  00000+0  61547-4 0  9999,2 21088  82.9448 156.9719 0021947 349.5976  73.8380 13.77496846766496,-49.012020367360066,-29.712690295387667,999716.4413690681
OKEAN-3,1 21397U 91039A   26086.10019360  .00002149  00000+0  14976-3 0  9991,2 21397  82.5165 319.9750 0012311 272.2560  87.7257 15.04905269867656,29.627688227003592,120.657036381551,559948.5687163534
COSMOS 2151,1 21422U 91042A   26086.22600510  .00002557  00000+0  20234-3 0  9997,2 21422  82.4944  66.7547 0012604   8.5922 351.5515 15.00177198865821,-4.259700941483133,-127.61998552922162,578796.8947324262
SL-14 R/B,1 21423U 91042B   26086.31435795  .00000477  00000+0  57250-4 0  9997,2 21423  82.4954 203.6583 0017085 178.3157 181.8118 14.81846921855680,52.54673503921057,-161.33634045506645,638845.472201959
